CCSDS_OMM_VERS = 2.0
CREATION_DATE  = 
ORIGINATOR     = 

OBJECT_NAME    = SL-16 R/B
OBJECT_ID      = 1996-051B
CENTER_NAME    = EARTH
REF_FRAME      = TEME
TIME_SYSTEM    = UTC
MEAN_ELEMENT_THEORY = SGP/SGP4

EPOCH          = 2025-10-31T13:29:03.814944
MEAN_MOTION    = 14.12392435
ECCENTRICITY   = .0017298
INCLINATION    = 70.7587
RA_OF_ASC_NODE = 88.5559
ARG_OF_PERICENTER = 315.4534
MEAN_ANOMALY   = 44.5194

EPHEMERIS_TYPE = 0
CLASSIFICATION_TYPE = U
NORAD_CAT_ID   = 24298
ELEMENT_SET_NO = 999
REV_AT_EPOCH   = 50341
BSTAR          = -.65579E-5
MEAN_MOTION_DOT = -.61E-6
MEAN_MOTION_DDOT = 0

CCSDS_OMM_VERS = 2.0
CREATION_DATE  = 
ORIGINATOR     = 

OBJECT_NAME    = ORBVIEW 2 (SEASTAR)
OBJECT_ID      = 1997-037A
CENTER_NAME    = EARTH
REF_FRAME      = TEME
TIME_SYSTEM    = UTC
MEAN_ELEMENT_THEORY = SGP/SGP4

EPOCH          = 2025-10-31T16:08:55.762368
MEAN_MOTION    = 14.35368255
ECCENTRICITY   = .0003242
INCLINATION    = 98.8440
RA_OF_ASC_NODE = 100.6951
ARG_OF_PERICENTER = 84.9120
MEAN_ANOMALY   = 275.2434

EPHEMERIS_TYPE = 0
CLASSIFICATION_TYPE = U
NORAD_CAT_ID   = 24883
ELEMENT_SET_NO = 999
REV_AT_EPOCH   = 48996
BSTAR          = .17364E-3
MEAN_MOTION_DOT = .452E-5
MEAN_MOTION_DDOT = 0

CCSDS_OMM_VERS = 2.0
CREATION_DATE  = 
ORIGINATOR     = 

OBJECT_NAME    = SL-16 R/B
OBJECT_ID      = 1998-043G
CENTER_NAME    = EARTH
REF_FRAME      = TEME
TIME_SYSTEM    = UTC
MEAN_ELEMENT_THEORY = SGP/SGP4

EPOCH          = 2025-10-31T15:06:07.402176
MEAN_MOTION    = 14.26009363
ECCENTRICITY   = .0010487
INCLINATION    = 98.8049
RA_OF_ASC_NODE = 252.2272
ARG_OF_PERICENTER = 34.0918
MEAN_ANOMALY   = 326.0933

EPHEMERIS_TYPE = 0
CLASSIFICATION_TYPE = U
NORAD_CAT_ID   = 25400
ELEMENT_SET_NO = 999
REV_AT_EPOCH   = 42059
BSTAR          = .73928E-4
MEAN_MOTION_DOT = .131E-5
MEAN_MOTION_DDOT = 0

CCSDS_OMM_VERS = 2.0
CREATION_DATE  = 
ORIGINATOR     = 

OBJECT_NAME    = SL-16 R/B
OBJECT_ID      = 1998-045B
CENTER_NAME    = EARTH
REF_FRAME      = TEME
TIME_SYSTEM    = UTC
MEAN_ELEMENT_THEORY = SGP/SGP4

EPOCH          = 2025-10-31T16:00:10.793376
MEAN_MOTION    = 14.16164869
ECCENTRICITY   = .0009096
INCLINATION    = 71.0096
RA_OF_ASC_NODE = 92.9011
ARG_OF_PERICENTER = 232.5442
MEAN_ANOMALY   = 127.4854

EPHEMERIS_TYPE = 0
CLASSIFICATION_TYPE = U
NORAD_CAT_ID   = 25407
ELEMENT_SET_NO = 999
REV_AT_EPOCH   = 40883
BSTAR          = .19558E-3
MEAN_MOTION_DOT = .339E-5
MEAN_MOTION_DDOT = 0

CCSDS_OMM_VERS = 2.0
CREATION_DATE  = 
ORIGINATOR     = 

OBJECT_NAME    = ISS (ZARYA)
OBJECT_ID      = 1998-067A
CENTER_NAME    = EARTH
REF_FRAME      = TEME
TIME_SYSTEM    = UTC
MEAN_ELEMENT_THEORY = SGP/SGP4

EPOCH          = 2025-10-31T11:43:44.129280
MEAN_MOTION    = 15.49652539
ECCENTRICITY   = .0004895
INCLINATION    = 51.6345
RA_OF_ASC_NODE = 351.6522
ARG_OF_PERICENTER = 1.4290
MEAN_ANOMALY   = 358.6712

EPHEMERIS_TYPE = 0
CLASSIFICATION_TYPE = U
NORAD_CAT_ID   = 25544
ELEMENT_SET_NO = 999
REV_AT_EPOCH   = 53630
BSTAR          = .27326E-3
MEAN_MOTION_DOT = .14984E-3
MEAN_MOTION_DDOT = 0

CCSDS_OMM_VERS = 2.0
CREATION_DATE  = 
ORIGINATOR     = 

OBJECT_NAME    = CZ-4B R/B
OBJECT_ID      = 1999-025C
CENTER_NAME    = EARTH
REF_FRAME      = TEME
TIME_SYSTEM    = UTC
MEAN_ELEMENT_THEORY = SGP/SGP4

EPOCH          = 2025-10-31T15:22:31.345248
MEAN_MOTION    = 14.18227810
ECCENTRICITY   = .0037007
INCLINATION    = 98.6835
RA_OF_ASC_NODE = 346.8486
ARG_OF_PERICENTER = 357.8058
MEAN_ANOMALY   = 112.9130

EPHEMERIS_TYPE = 0
CLASSIFICATION_TYPE = U
NORAD_CAT_ID   = 25732
ELEMENT_SET_NO = 999
REV_AT_EPOCH   = 36987
BSTAR          = .63758E-4
MEAN_MOTION_DOT = .89E-6
MEAN_MOTION_DDOT = 0

CCSDS_OMM_VERS = 2.0
CREATION_DATE  = 
ORIGINATOR     = 

OBJECT_NAME    = OKEAN-O
OBJECT_ID      = 1999-039A
CENTER_NAME    = EARTH
REF_FRAME      = TEME
TIME_SYSTEM    = UTC
MEAN_ELEMENT_THEORY = SGP/SGP4

EPOCH          = 2025-10-31T14:30:58.354848
MEAN_MOTION    = 14.80053399
ECCENTRICITY   = .0001777
INCLINATION    = 97.9665
RA_OF_ASC_NODE = 0.6598
ARG_OF_PERICENTER = 76.2276
MEAN_ANOMALY   = 283.9133

EPHEMERIS_TYPE = 0
CLASSIFICATION_TYPE = U
NORAD_CAT_ID   = 25860
ELEMENT_SET_NO = 999
REV_AT_EPOCH   = 41529
BSTAR          = .13933E-3
MEAN_MOTION_DOT = .1003E-4
MEAN_MOTION_DDOT = 0

CCSDS_OMM_VERS = 2.0
CREATION_DATE  = 
ORIGINATOR     = 

OBJECT_NAME    = SL-16 R/B
OBJECT_ID      = 1999-039B
CENTER_NAME    = EARTH
REF_FRAME      = TEME
TIME_SYSTEM    = UTC
MEAN_ELEMENT_THEORY = SGP/SGP4

EPOCH          = 2025-10-31T15:22:32.757888
MEAN_MOTION    = 14.81494894
ECCENTRICITY   = .0013917
INCLINATION    = 98.0189
RA_OF_ASC_NODE = 358.7768
ARG_OF_PERICENTER = 320.3497
MEAN_ANOMALY   = 39.6697

EPHEMERIS_TYPE = 0
CLASSIFICATION_TYPE = U
NORAD_CAT_ID   = 25861
ELEMENT_SET_NO = 999
REV_AT_EPOCH   = 41775
BSTAR          = .11387E-3
MEAN_MOTION_DOT = .839E-5
MEAN_MOTION_DDOT = 0

CCSDS_OMM_VERS = 2.0
CREATION_DATE  = 
ORIGINATOR     = 

OBJECT_NAME    = DELTA 2 R/B
OBJECT_ID      = 1999-041E
CENTER_NAME    = EARTH
REF_FRAME      = TEME
TIME_SYSTEM    = UTC
MEAN_ELEMENT_THEORY = SGP/SGP4

EPOCH          = 2025-10-31T13:51:24.436224
MEAN_MOTION    = 14.11254097
ECCENTRICITY   = .0504659
INCLINATION    = 51.7630
RA_OF_ASC_NODE = 96.7243
ARG_OF_PERICENTER = 327.5044
MEAN_ANOMALY   = 29.5722

EPHEMERIS_TYPE = 0
CLASSIFICATION_TYPE = U
NORAD_CAT_ID   = 25876
ELEMENT_SET_NO = 999
REV_AT_EPOCH   = 34479
BSTAR          = .17768E-3
MEAN_MOTION_DOT = .862E-5
MEAN_MOTION_DDOT = 0

CCSDS_OMM_VERS = 2.0
CREATION_DATE  = 
ORIGINATOR     = 

OBJECT_NAME    = HELIOS 1B
OBJECT_ID      = 1999-064A
CENTER_NAME    = EARTH
REF_FRAME      = TEME
TIME_SYSTEM    = UTC
MEAN_ELEMENT_THEORY = SGP/SGP4

EPOCH          = 2025-10-31T16:24:57.157632
MEAN_MOTION    = 14.87021500
ECCENTRICITY   = .0002496
INCLINATION    = 98.1758
RA_OF_ASC_NODE = 198.1094
ARG_OF_PERICENTER = 99.2417
MEAN_ANOMALY   = 260.9081

EPHEMERIS_TYPE = 0
CLASSIFICATION_TYPE = U
NORAD_CAT_ID   = 25977
ELEMENT_SET_NO = 999
REV_AT_EPOCH   = 66608
BSTAR          = .27903E-3
MEAN_MOTION_DOT = .2442E-4
MEAN_MOTION_DDOT = 0

CCSDS_OMM_VERS = 2.0
CREATION_DATE  = 
ORIGINATOR     = 

OBJECT_NAME    = TERRA
OBJECT_ID      = 1999-068A
CENTER_NAME    = EARTH
REF_FRAME      = TEME
TIME_SYSTEM    = UTC
MEAN_ELEMENT_THEORY = SGP/SGP4

EPOCH          = 2025-10-31T15:06:07.752960
MEAN_MOTION    = 14.60878060
ECCENTRICITY   = .000151
INCLINATION    = 97.9811
RA_OF_ASC_NODE = 357.8446
ARG_OF_PERICENTER = 197.4446
MEAN_ANOMALY   = 314.5768

EPHEMERIS_TYPE = 0
CLASSIFICATION_TYPE = U
NORAD_CAT_ID   = 25994
ELEMENT_SET_NO = 999
REV_AT_EPOCH   = 37623
BSTAR          = .15183E-3
MEAN_MOTION_DOT = .698E-5
MEAN_MOTION_DDOT = 0

CCSDS_OMM_VERS = 2.0
CREATION_DATE  = 
ORIGINATOR     = 

OBJECT_NAME    = SL-16 R/B
OBJECT_ID      = 2000-006B
CENTER_NAME    = EARTH
REF_FRAME      = TEME
TIME_SYSTEM    = UTC
MEAN_ELEMENT_THEORY = SGP/SGP4

EPOCH          = 2025-10-31T15:34:15.976128
MEAN_MOTION    = 14.15797529
ECCENTRICITY   = .001605
INCLINATION    = 71.0044
RA_OF_ASC_NODE = 9.1601
ARG_OF_PERICENTER = 10.2298
MEAN_ANOMALY   = 349.9149

EPHEMERIS_TYPE = 0
CLASSIFICATION_TYPE = U
NORAD_CAT_ID   = 26070
ELEMENT_SET_NO = 999
REV_AT_EPOCH   = 33029
BSTAR          = .20329E-3
MEAN_MOTION_DOT = .352E-5
MEAN_MOTION_DDOT = 0

