SL-16 R/B               
1 24298U 96051B   25304.56184971 -.00000061  00000+0 -65579-5 0  9996
2 24298  70.7587  88.5559 0017298 315.4534  44.5194 14.12392435503417
ORBVIEW 2 (SEASTAR)     
1 24883U 97037A   25304.67286762  .00000452  00000+0  17364-3 0  9993
2 24883  98.8440 100.6951 0003242  84.9120 275.2434 14.35368255489962
SL-16 R/B               
1 25400U 98043G   25304.62925234  .00000131  00000+0  73928-4 0  9999
2 25400  98.8049 252.2272 0010487  34.0918 326.0933 14.26009363420598
SL-16 R/B               
1 25407U 98045B   25304.66679159  .00000339  00000+0  19558-3 0  9992
2 25407  71.0096  92.9011 0009096 232.5442 127.4854 14.16164869408831
ISS (ZARYA)             
1 25544U 98067A   25304.48870520  .00014984  00000+0  27326-3 0  9996
2 25544  51.6345 351.6522 0004895   1.4290 358.6712 15.49652539536300
CZ-4B R/B               
1 25732U 99025C   25304.64064057  .00000089  00000+0  63758-4 0  9999
2 25732  98.6835 346.8486 0037007 357.8058 112.9130 14.18227810369876
OKEAN-O                 
1 25860U 99039A   25304.60484207  .00001003  00000+0  13933-3 0  9991
2 25860  97.9665   0.6598 0001777  76.2276 283.9133 14.80053399415297
SL-16 R/B               
1 25861U 99039B   25304.64065692  .00000839  00000+0  11387-3 0  9996
2 25861  98.0189 358.7768 0013917 320.3497  39.6697 14.81494894417758
DELTA 2 R/B             
1 25876U 99041E   25304.57736616  .00000862  00000+0  17768-3 0  9993
2 25876  51.7630  96.7243 0504659 327.5044  29.5722 14.11254097344795
HELIOS 1B               
1 25977U 99064A   25304.68399488  .00002442  00000+0  27903-3 0  9992
2 25977  98.1758 198.1094 0002496  99.2417 260.9081 14.87021500666085
TERRA                   
1 25994U 99068A   25304.62925640  .00000698  00000+0  15183-3 0  9992
2 25994  97.9811 357.8446 0001510 197.4446 314.5768 14.60878060376230
SL-16 R/B               
1 26070U 00006B   25304.64879602  .00000352  00000+0  20329-3 0  9995
2 26070  71.0044   9.1601 0016050  10.2298 349.9149 14.15797529330290
